[{"OBJECT_NAME":"KUIPER-00023","OBJECT_ID":"2025-088P","EPOCH":"2026-03-09T12:21:02.638368","MEAN_MOTION":14.79934157,"ECCENTRICITY":0.00084141,"INCLINATION":51.899,"RA_OF_ASC_NODE":106.3195,"ARG_OF_PERICENTER":96.3208,"MEAN_ANOMALY":263.8713,"EPHEMERIS_TYPE":0,"CLASSIFICATION_TYPE":"U","NORAD_CAT_ID":63737,"ELEMENT_SET_NO":999,"REV_AT_EPOCH":4773,"BSTAR":0.00062479522,"MEAN_MOTION_DOT":4.546e-5,"MEAN_MOTION_DDOT":0},{"OBJECT_NAME":"COSMOS 2251 DEB","OBJECT_ID":"1993-036ATB","EPOCH":"2026-03-09T22:48:03.293568","MEAN_MOTION":14.78950757,"ECCENTRICITY":0.00061841,"INCLINATION":74.0236,"RA_OF_ASC_NODE":287.5488,"ARG_OF_PERICENTER":315.8216,"MEAN_ANOMALY":44.2465,"EPHEMERIS_TYPE":0,"CLASSIFICATION_TYPE":"U","NORAD_CAT_ID":35829,"ELEMENT_SET_NO":999,"REV_AT_EPOCH":89063,"BSTAR":0.0017515471,"MEAN_MOTION_DOT":0.00012922,"MEAN_MOTION_DDOT":0}]
